FLOCK 4G-14             
1 62667U 25009BL  26068.75869712  .00011310  00000+0  42676-3 0  9993
2 62667  97.4064 151.1836 0003006 318.3639  41.7371 15.27197201 63711
STARLINK-33910          
1 63916U 25095AC  26068.30808651  .00026813  00000+0  98057-3 0  9990
2 63916  42.9998 178.0025 0001862 141.8433 218.2551 15.27571496 47723
